NORAD_CAT_ID,OBJECT_NAME,OBJECT_TYPE,EPOCH,MEAN_MOTION,ECCENTRICITY,INCLINATION,RA_OF_ASC_NODE,ARG_OF_PERICENTER,MEAN_ANOMALY,BSTAR,MEAN_MOTION_DOT,MEAN_MOTION_DDOT,TLE_LINE0,TLE_LINE1,TLE_LINE2,SEMIMAJOR_AXIS,PERIOD,APOGEE,PERIGEE,DECAYED
52603.0,STARLINK-4016,PAYLOAD,2024-03-05 01:07:43,15.08819411,0.0001398,53.2185,337.0756,90.6327,269.4826,-0.0001307,-2.366e-05,0.0,0 STARLINK-4016,1 52603U 22052F   24065.04702957 -.00002366  00000-0 -13070-3 0  9991,2 52603  53.2185 337.0756 0001398  90.6327 269.4826 15.08819411100322,6917.943,95.439,540.775,538.841,0.0
52603.0,STARLINK-4016,PAYLOAD,2024-03-05 10:40:01,15.08834307,0.0001298,53.2181,335.2851,78.1621,281.9517,8.9748e-06,-1.45e-06,0.0,0 STARLINK-4016,1 52603U 22052F   24065.44445754 -.00000145  00000-0  89748-5 0  9993,2 52603  53.2181 335.2851 0001298  78.1621 281.9517 15.08834307100384,6917.898,95.438,540.661,538.865,0.0
52603.0,STARLINK-4016,PAYLOAD,2024-03-06 04:09:14,15.08854722,0.0001204,53.2178,332.0181,99.2675,260.8453,5.8427e-05,6.42e-06,0.0,0 STARLINK-4016,1 52603U 22052F   24066.17308430  .00000642  00000-0  58427-4 0  9993,2 52603  53.2178 332.0181 0001204  99.2675 260.8453 15.08854722100491,6917.835,95.437,540.533,538.867,0.0
52603.0,STARLINK-4016,PAYLOAD,2024-03-07 02:24:39,15.08833507,0.0001263,53.2183,327.8538,100.3423,259.7711,0.00014187,1.97e-05,0.0,0 STARLINK-4016,1 52603U 22052F   24067.10045836  .00001970  00000-0  14187-3 0  9994,2 52603  53.2183 327.8538 0001263 100.3423 259.7711 15.08833507100633,6917.9,95.438,540.639,538.892,0.0
52603.0,STARLINK-4016,PAYLOAD,2024-03-07 10:21:34,15.08842869,0.0001268,53.2177,326.3669,83.2535,276.8602,0.00019329,2.79e-05,0.0,0 STARLINK-4016,1 52603U 22052F   24067.43165233  .00002790  00000-0  19329-3 0  9998,2 52603  53.2177 326.3669 0001268  83.2535 276.8602 15.08842869101117,6917.872,95.437,540.614,538.859,0.0
52603.0,STARLINK-4016,PAYLOAD,2024-03-08 10:12:21,15.08851271,0.0001346,53.2195,321.9013,108.1703,251.9436,0.00010835,1.437e-05,0.0,0 STARLINK-4016,1 52603U 22052F   24068.42524647  .00001437  00000-0  10835-3 0  9996,2 52603  53.2195 321.9013 0001346 108.1703 251.9436 15.08851271101264,6917.846,95.437,540.642,538.78,0.0
52603.0,STARLINK-4016,PAYLOAD,2024-03-08 22:55:28,15.08828456,9.48e-05,53.2195,319.5251,94.7645,265.3455,-7.787e-05,-1.526e-05,0.0,0 STARLINK-4016,1 52603U 22052F   24068.95518676 -.00001526  00000-0 -77870-4 0  9993,2 52603  53.2195 319.5251 0000948  94.7645 265.3455 15.08828456101341,6917.916,95.438,540.436,539.125,0.0
52603.0,STARLINK-4016,PAYLOAD,2024-03-09 10:03:09,15.0884273,0.0001368,53.2196,317.4429,93.6519,266.463,4.7739e-05,4.72e-06,0.0,0 STARLINK-4016,1 52603U 22052F   24069.41885512  .00000472  00000-0  47739-4 0  9999,2 52603  53.2196 317.4429 0001368  93.6519 266.4630 15.08842730100988,6917.872,95.437,540.683,538.791,0.0
52603.0,STARLINK-4016,PAYLOAD,2024-03-09 22:46:13,15.08840926,9.77e-05,53.2197,315.0646,99.4293,260.681,5.2373e-05,5.46e-06,0.0,0 STARLINK-4016,1 52603U 22052F   24069.94877288  .00000546  00000-0  52373-4 0  9990,2 52603  53.2197 315.0646 0000977  99.4293 260.6810 15.08840926101490,6917.878,95.437,540.418,539.067,0.0
52603.0,STARLINK-4016,PAYLOAD,2024-03-10 21:01:38,15.08841464,0.0001176,53.2177,310.9004,99.7179,260.3946,-4.5429e-05,-1.011e-05,0.0,0 STARLINK-4016,1 52603U 22052F   24070.87613444 -.00001011  00000-0 -45429-4 0  9990,2 52603  53.2177 310.9004 0001176  99.7179 260.3946 15.08841464101202,6917.876,95.437,540.554,538.927,0.0
52603.0,STARLINK-4016,PAYLOAD,2024-03-10 22:37:01,15.08829286,0.0001081,53.2166,310.604,83.857,276.2546,7.2362e-05,8.64e-06,0.0,0 STARLINK-4016,1 52603U 22052F   24070.94238016  .00000864  00000-0  72362-4 0  9995,2 52603  53.2166 310.6040 0001081  83.8570 276.2546 15.08829286101649,6917.913,95.438,540.526,539.03,0.0
52603.0,STARLINK-4016,PAYLOAD,2024-03-11 01:47:47,15.08836315,0.0001375,53.217,310.0095,89.2702,270.8448,-2.1444e-06,-3.22e-06,0.0,0 STARLINK-4016,1 52603U 22052F   24071.07485937 -.00000322  00000-0 -21444-5 0  9993,2 52603  53.2170 310.0095 0001375  89.2702 270.8448 15.08836315101238,6917.892,95.438,540.708,538.805,0.0
52603.0,STARLINK-4016,PAYLOAD,2024-03-12 08:00:06,15.08852477,0.0001089,53.2174,304.3612,82.48,277.6316,-6.4702e-05,-1.318e-05,0.0,0 STARLINK-4016,1 52603U 22052F   24072.33341178 -.00001318  00000-0 -64702-4 0  9990,2 52603  53.2174 304.3612 0001089  82.4800 277.6316 15.08852477101426,6917.842,95.437,540.461,538.954,0.0
52603.0,STARLINK-4016,PAYLOAD,2024-03-12 15:57:03,15.08833136,0.0001874,53.2175,302.8771,86.1744,273.9463,7.8648e-05,9.64e-06,0.0,0 STARLINK-4016,1 52603U 22052F   24072.66462228  .00000964  00000-0  78648-4 0  9994,2 52603  53.2175 302.8771 0001874  86.1744 273.9463 15.08833136101474,6917.901,95.438,541.063,538.47,0.0
52603.0,STARLINK-4016,PAYLOAD,2024-03-12 22:18:36,15.0882823,0.0001622,53.2186,301.6882,94.0993,266.0184,2.3722e-05,8.9e-07,0.0,0 STARLINK-4016,1 52603U 22052F   24072.92958784  .00000089  00000-0  23722-4 0  9991,2 52603  53.2186 301.6882 0001622  94.0993 266.0184 15.08828230101945,6917.916,95.438,540.903,538.659,0.0
52603.0,STARLINK-4016,PAYLOAD,2024-03-13 07:50:54,15.08836882,0.0001458,53.2175,299.9012,88.6337,271.4822,4.3809e-05,4.09e-06,0.0,0 STARLINK-4016,1 52603U 22052F   24073.32702371  .00000409  00000-0  43809-4 0  9999,2 52603  53.2175 299.9012 0001458  88.6337 271.4822 15.08836882102004,6917.89,95.438,540.764,538.746,0.0
52603.0,STARLINK-4016,PAYLOAD,2024-03-14 07:41:41,15.08844553,0.0001489,53.216,295.4397,81.5094,278.6067,5.0523e-06,-2.08e-06,0.0,0 STARLINK-4016,1 52603U 22052F   24074.32062069 -.00000208  00000-0  50523-5 0  9993,2 52603  53.2160 295.4397 0001489  81.5094 278.6067 15.08844553101723,6917.866,95.437,540.762,538.701,0.0
52603.0,STARLINK-4016,PAYLOAD,2024-03-14 20:24:47,15.08817917,0.0001433,53.2174,293.0616,90.7474,269.3682,0.00019271,2.779e-05,0.0,0 STARLINK-4016,1 52603U 22052F   24074.85055219  .00002779  00000-0  19271-3 0  9997,2 52603  53.2174 293.0616 0001433  90.7474 269.3682 15.08817917101802,6917.948,95.439,540.804,538.822,0.0
52603.0,STARLINK-4016,PAYLOAD,2024-03-14 23:35:33,15.08828176,0.00012,53.2158,292.4661,82.9089,277.204,8.6751e-05,1.093e-05,0.0,0 STARLINK-4016,1 52603U 22052F   24074.98302984  .00001093  00000-0  86751-4 0  9991,2 52603  53.2158 292.4661 0001200  82.9089 277.2040 15.08828176101821,6917.917,95.438,540.612,538.951,0.0
52603.0,STARLINK-4016,PAYLOAD,2024-03-15 13:54:01,15.08840594,0.0001066,53.2169,289.7876,81.1867,278.9246,-1.6567e-05,-5.51e-06,0.0,0 STARLINK-4016,1 52603U 22052F   24075.57918460 -.00000551  00000-0 -16567-4 0  9997,2 52603  53.2169 289.7876 0001066  81.1867 278.9246 15.08840594101919,6917.879,95.438,540.481,539.006,0.0
52603.0,STARLINK-4016,PAYLOAD,2024-03-15 21:50:57,15.08837076,0.000129,53.2159,288.3022,86.5326,273.5813,0.00010009,1.305e-05,0.0,0 STARLINK-4016,1 52603U 22052F   24075.91038200  .00001305  00000-0  10009-3 0  9990,2 52603  53.2159 288.3022 0001290  86.5326 273.5813 15.08837076102399,6917.889,95.438,540.647,538.862,0.0
52603.0,STARLINK-4016,PAYLOAD,2024-03-15 23:26:20,15.08837464,0.0001292,53.2158,288.0048,86.4554,273.6586,0.00010217,1.338e-05,0.0,0 STARLINK-4016,1 52603U 22052F   24075.97662188  .00001338  00000-0  10217-3 0  9991,2 52603  53.2158 288.0048 0001292  86.4554 273.6586 15.08837464102408,6917.888,95.438,540.647,538.859,0.0
52603.0,STARLINK-4016,PAYLOAD,2024-03-16 20:06:20,15.08845651,0.0001332,53.2162,284.1403,78.3274,281.7868,8.4982e-05,1.065e-05,0.0,0 STARLINK-4016,1 52603U 22052F   24076.83773809  .00001065  00000-0  84982-4 0  9998,2 52603  53.2162 284.1403 0001332  78.3274 281.7868 15.08845651102106,6917.863,95.437,540.65,538.807,0.0
52603.0,STARLINK-4016,PAYLOAD,2024-03-17 13:35:35,15.08842117,0.0001403,53.2158,280.8689,74.7006,285.4142,1.1522e-05,-1.05e-06,0.0,0 STARLINK-4016,1 52603U 22052F   24077.56638139 -.00000105  00000-0  11522-4 0  9990,2 52603  53.2158 280.8689 0001403  74.7006 285.4142 15.08842117102641,6917.874,95.437,540.709,538.768,0.0
52603.0,STARLINK-4016,PAYLOAD,2024-03-17 19:57:08,15.08837758,0.0001189,53.2155,279.677,90.3712,269.7416,-4.0582e-05,-9.34e-06,0.0,0 STARLINK-4016,1 52603U 22052F   24077.83134476 -.00000934  00000-0 -40582-4 0  9994,2 52603  53.2155 279.6770 0001189  90.3712 269.7416 15.08837758102255,6917.887,95.438,540.575,538.93,0.0
52603.0,STARLINK-4016,PAYLOAD,2024-03-18 13:26:22,15.08834576,0.0001287,53.2158,276.4045,108.2079,251.9053,-3.4866e-05,-8.43e-06,0.0,0 STARLINK-4016,1 52603U 22052F   24078.55998624 -.00000843  00000-0 -34866-4 0  9994,2 52603  53.2158 276.4045 0001287 108.2079 251.9053 15.08834576102796,6917.897,95.438,540.652,538.872,0.0
52603.0,STARLINK-4016,PAYLOAD,2024-03-19 19:38:42,15.08837808,0.0001309,53.2165,270.7572,102.7899,257.3239,0.00010086,1.318e-05,0.0,0 STARLINK-4016,1 52603U 22052F   24079.81854219  .00001318  00000-0  10086-3 0  9998,2 52603  53.2165 270.7572 0001309 102.7899 257.3239 15.08837808102551,6917.887,95.438,540.658,538.847,0.0
52603.0,STARLINK-4016,PAYLOAD,2024-03-20 13:07:57,15.08837949,0.0001473,53.217,267.4875,94.8635,265.2525,3.0402e-05,1.96e-06,0.0,0 STARLINK-4016,1 52603U 22052F   24080.54718773  .00000196  00000-0  30402-4 0  9992,2 52603  53.2170 267.4875 0001473  94.8635 265.2525 15.08837949103099,6917.887,95.438,540.771,538.733,0.0
52603.0,STARLINK-4016,PAYLOAD,2024-03-20 19:29:30,15.08831312,0.000124,53.2167,266.2947,91.454,268.6595,-2.3589e-05,-6.63e-06,0.0,0 STARLINK-4016,1 52603U 22052F   24080.81215400 -.00000663  00000-0 -23589-4 0  9990,2 52603  53.2167 266.2947 0001240  91.4540 268.6595 15.08831312102701,6917.907,95.438,540.63,538.914,0.0
52603.0,STARLINK-4016,PAYLOAD,2024-03-21 11:23:21,15.08840377,0.0001158,53.2171,263.3258,99.7053,260.407,-6.2457e-05,-1.282e-05,0.0,0 STARLINK-4016,1 52603U 22052F   24081.47455296 -.00001282  00000-0 -62457-4 0  9997,2 52603  53.2171 263.3258 0001158  99.7053 260.4070 15.08840377103235,6917.879,95.438,540.545,538.943,0.0
